NORAD_CAT_ID,OBJECT_NAME,OBJECT_TYPE,EPOCH,MEAN_MOTION,ECCENTRICITY,INCLINATION,RA_OF_ASC_NODE,ARG_OF_PERICENTER,MEAN_ANOMALY,BSTAR,MEAN_MOTION_DOT,MEAN_MOTION_DDOT,TLE_LINE0,TLE_LINE1,TLE_LINE2,SEMIMAJOR_AXIS,PERIOD,APOGEE,PERIGEE,DECAYED
54175.0,STARLINK-5256,PAYLOAD,2023-02-13 03:32:23,15.08852738,0.0001038,53.217,354.4374,105.3443,254.7663,0.002492,0.00039609,0.0,0 STARLINK-5256,1 54175U 22141U   23044.14749794  .00039609  00000-0  24920-2 0  9996,2 54175  53.2170 354.4374 0001038 105.3443 254.7663 15.08852738 16696,6917.841,95.437,540.425,538.988,0.0
54175.0,STARLINK-5256,PAYLOAD,2023-02-13 13:04:42,15.08844081,0.0001684,53.2184,352.6514,88.6507,271.4678,0.0013655,0.00021513,0.0,0 STARLINK-5256,1 54175U 22141U   23044.54493860  .00021513  00000-0  13655-2 0  9998,2 54175  53.2184 352.6514 0001684  88.6507 271.4678 15.08844081 16759,6917.868,95.437,540.898,538.568,0.0
54175.0,STARLINK-5256,PAYLOAD,2023-02-14 12:55:29,15.0882809,0.0003102,53.2197,348.1919,87.9568,272.178,-0.00050639,-8.337e-05,0.0,0 STARLINK-5256,1 54175U 22141U   23045.53853611 -.00008337  00000-0 -50639-3 0  9997,2 54175  53.2197 348.1919 0003102  87.9568 272.1780 15.08828090 16909,6917.917,95.438,541.928,537.636,0.0
54175.0,STARLINK-5256,PAYLOAD,2023-02-15 03:13:57,15.08838372,0.0001107,53.2179,345.5175,118.4586,241.6518,9.7449e-05,1.263e-05,0.0,0 STARLINK-5256,1 54175U 22141U   23046.13469526  .00001263  00000-0  97449-4 0  9992,2 54175  53.2179 345.5175 0001107 118.4586 241.6518 15.08838372 16990,6917.885,95.438,540.516,538.985,0.0
54175.0,STARLINK-5256,PAYLOAD,2023-02-16 03:04:44,15.08876574,0.0001047,53.2171,341.0556,90.6694,269.4419,0.0017541,0.00027767,0.0,0 STARLINK-5256,1 54175U 22141U   23047.12829356  .00027767  00000-0  17541-2 0  9993,2 54175  53.2171 341.0556 0001047  90.6694 269.4419 15.08876574 17142,6917.769,95.435,540.358,538.909,0.0
54175.0,STARLINK-5256,PAYLOAD,2023-02-16 12:37:03,15.08848539,0.0001445,53.2164,339.2716,68.4956,291.619,0.00111,0.00017426,0.0,0 STARLINK-5256,1 54175U 22141U   23047.52573854  .00017426  00000-0  11100-2 0  9992,2 54175  53.2164 339.2716 0001445  68.4956 291.6190 15.08848539 17207,6917.854,95.437,540.719,538.72,0.0
54175.0,STARLINK-5256,PAYLOAD,2023-02-17 01:20:09,15.08819089,0.000157,53.218,336.8913,73.2649,286.8515,0.0012903,0.00020295,0.0,0 STARLINK-5256,1 54175U 22141U   23048.05566992  .00020295  00000-0  12903-2 0  9996,2 54175  53.2180 336.8913 0001570  73.2649 286.8515 15.08819089 17282,6917.944,95.439,540.895,538.723,0.0
54175.0,STARLINK-5256,PAYLOAD,2023-02-17 12:27:52,15.08819668,0.0001653,53.2173,334.8077,71.1641,288.9531,0.00096684,0.00015124,0.0,0 STARLINK-5256,1 54175U 22141U   23048.51935848  .00015124  00000-0  96684-3 0  9991,2 54175  53.2173 334.8077 0001653  71.1641 288.9531 15.08819668 17356,6917.943,95.439,540.951,538.664,0.0
54175.0,STARLINK-5256,PAYLOAD,2023-02-17 23:35:35,15.08818639,0.0001775,53.218,332.7284,67.1529,292.9651,0.00053372,8.211e-05,0.0,0 STARLINK-5256,1 54175U 22141U   23048.98304651  .00008211  00000-0  53372-3 0  9990,2 54175  53.2180 332.7284 0001775  67.1529 292.9651 15.08818639 17429,6917.946,95.439,541.039,538.583,0.0
54175.0,STARLINK-5256,PAYLOAD,2023-02-18 12:18:40,15.08844031,0.0001637,53.2179,330.3489,73.2333,286.8839,0.00073413,0.00011416,0.0,0 STARLINK-5256,1 54175U 22141U   23049.51296506  .00011416  00000-0  73413-3 0  9998,2 54175  53.2179 330.3489 0001637  73.2333 286.8839 15.08844031 17500,6917.868,95.437,540.866,538.601,0.0
54175.0,STARLINK-5256,PAYLOAD,2023-02-19 01:01:44,15.08880847,0.0001669,53.2178,327.9705,68.5736,291.5434,0.0014743,0.0002328,0.0,0 STARLINK-5256,1 54175U 22141U   23050.04287383  .00023280  00000-0  14743-2 0  9993,2 54175  53.2178 327.9705 0001669  68.5736 291.5434 15.08880847 17588,6917.756,95.435,540.775,538.466,0.0
54175.0,STARLINK-5256,PAYLOAD,2023-02-19 18:30:57,15.08880784,0.0001664,53.2172,324.6999,61.159,298.9569,0.00091184,0.0001427,0.0,0 STARLINK-5256,1 54175U 22141U   23050.77150334  .00014270  00000-0  91184-3 0  9992,2 54175  53.2172 324.6999 0001664  61.1590 298.9569 15.08880784 17695,6917.756,95.435,540.772,538.47,0.0
54175.0,STARLINK-5256,PAYLOAD,2023-02-20 00:52:30,15.08863589,0.0001249,53.2177,323.5117,73.167,286.9459,0.0015279,0.00024128,0.0,0 STARLINK-5256,1 54175U 22141U   23051.03646018  .00024128  00000-0  15279-2 0  9994,2 54175  53.2177 323.5117 0001249  73.1670 286.9459 15.08863589 17735,6917.808,95.436,540.537,538.809,0.0
54175.0,STARLINK-5256,PAYLOAD,2023-02-20 18:21:44,15.08852743,9.91e-05,53.2174,320.2403,91.3271,268.7835,0.0014832,0.00023404,0.0,0 STARLINK-5256,1 54175U 22141U   23051.76510366  .00023404  00000-0  14832-2 0  9990,2 54175  53.2174 320.2403 0000991  91.3271 268.7835 15.08852743 17844,6917.841,95.437,540.392,539.021,0.0
54175.0,STARLINK-5256,PAYLOAD,2023-02-21 02:18:40,15.08847737,0.0001334,53.2182,318.7549,92.4001,267.7144,0.00084167,0.00013135,0.0,0 STARLINK-5256,1 54175U 22141U   23052.09630304  .00013135  00000-0  84167-3 0  9991,2 54175  53.2182 318.7549 0001334  92.4001 267.7144 15.08847737 17895,6917.857,95.437,540.645,538.799,0.0
54175.0,STARLINK-5256,PAYLOAD,2023-02-21 10:15:36,15.0884528,0.0001298,53.218,317.2685,93.6883,266.4258,0.00052322,8.05e-05,0.0,0 STARLINK-5256,1 54175U 22141U   23052.42750338  .00008050  00000-0  52322-3 0  9996,2 54175  53.2180 317.2685 0001298  93.6883 266.4258 15.08845280 17947,6917.864,95.437,540.627,538.831,0.0
54175.0,STARLINK-5256,PAYLOAD,2023-02-21 21:23:18,15.08842701,0.0001484,53.2188,315.1895,95.1457,264.9704,0.00016024,2.263e-05,0.0,0 STARLINK-5256,1 54175U 22141U   23052.89118450  .00002263  00000-0  16024-3 0  9999,2 54175  53.2188 315.1895 0001484  95.1457 264.9704 15.08842701 18019,6917.872,95.437,540.764,538.711,0.0
54175.0,STARLINK-5256,PAYLOAD,2023-02-22 03:44:50,15.08854057,0.0001346,53.2168,313.9968,81.1426,278.9719,0.00077194,0.00012023,0.0,0 STARLINK-5256,1 54175U 22141U   23053.15614106  .00012023  00000-0  77194-3 0  9998,2 54175  53.2168 313.9968 0001346  81.1426 278.9719 15.08854057 18054,6917.837,95.437,540.634,538.771,0.0
54175.0,STARLINK-5256,PAYLOAD,2023-02-23 02:00:15,15.0883494,0.0001133,53.2161,309.8332,102.3274,257.7845,0.00059824,9.245e-05,0.0,0 STARLINK-5256,1 54175U 22141U   23054.08351457  .00009245  00000-0  59824-3 0  9990,2 54175  53.2161 309.8332 0001133 102.3274 257.7845 15.08834940 18196,6917.896,95.438,540.545,538.977,0.0
54175.0,STARLINK-5256,PAYLOAD,2023-02-23 17:54:07,15.08847221,0.0001095,53.2154,306.8595,100.3849,259.7267,0.00087859,0.00013725,0.0,0 STARLINK-5256,1 54175U 22141U   23054.74591600  .00013725  00000-0  87859-3 0  9996,2 54175  53.2154 306.8595 0001095 100.3849 259.7267 15.08847221 18296,6917.858,95.437,540.481,538.966,0.0
54175.0,STARLINK-5256,PAYLOAD,2023-02-24 01:51:02,15.08865091,0.0001046,53.2149,305.3719,102.6594,257.4515,0.0012141,0.000191,0.0,0 STARLINK-5256,1 54175U 22141U   23055.07711098  .00019100  00000-0  12141-2 0  9992,2 54175  53.2149 305.3719 0001046 102.6594 257.4515 15.08865091 18342,6917.804,95.436,540.392,538.945,0.0
54175.0,STARLINK-5256,PAYLOAD,2023-02-24 16:09:30,15.08848615,0.0001281,53.2153,302.6963,83.0448,277.069,0.00041131,6.266e-05,0.0,0 STARLINK-5256,1 54175U 22141U   23055.67327429  .00006266  00000-0  41131-3 0  9990,2 54175  53.2153 302.6963 0001281  83.0448 277.0690 15.08848615 18434,6917.854,95.437,540.605,538.833,0.0
54175.0,STARLINK-5256,PAYLOAD,2023-02-25 01:41:49,15.08846126,0.000106,53.2152,300.9106,82.3657,277.7455,0.00037647,5.71e-05,0.0,0 STARLINK-5256,1 54175U 22141U   23056.07071379  .00005710  00000-0  37647-3 0  9995,2 54175  53.2152 300.9106 0001060  82.3657 277.7455 15.08846126 18499,6917.862,95.437,540.46,538.993,0.0
54175.0,STARLINK-5256,PAYLOAD,2023-02-25 22:21:50,15.08842094,0.0001206,53.2147,297.0443,85.3077,274.8053,0.00035759,5.408e-05,0.0,0 STARLINK-5256,1 54175U 22141U   23056.93183642  .00005408  00000-0  35759-3 0  9993,2 54175  53.2147 297.0443 0001206  85.3077 274.8053 15.08842094 18621,6917.874,95.437,540.573,538.905,0.0
54175.0,STARLINK-5256,PAYLOAD,2023-02-25 23:57:13,15.08846746,0.0001184,53.2159,296.749,79.6742,280.4384,0.00044376,6.783e-05,0.0,0 STARLINK-5256,1 54175U 22141U   23056.99807602  .00006783  00000-0  44376-3 0  9990,2 54175  53.2159 296.7490 0001184  79.6742 280.4384 15.08846746 18631,6917.86,95.437,540.544,538.906,0.0
54175.0,STARLINK-5256,PAYLOAD,2023-02-26 22:12:36,15.08866932,0.0001177,53.2154,292.5844,85.194,274.9186,0.00064664,0.00010026,0.0,0 STARLINK-5256,1 54175U 22141U   23057.92542524  .00010026  00000-0  64664-3 0  9990,2 54175  53.2154 292.5844 0001177  85.1940 274.9186 15.08866932 18779,6917.798,95.436,540.477,538.849,0.0
54175.0,STARLINK-5256,PAYLOAD,2023-02-27 01:23:22,15.08871219,0.0001157,53.2156,291.9892,86.979,273.1335,0.00081051,0.00012646,0.0,0 STARLINK-5256,1 54175U 22141U   23058.05790332  .00012646  00000-0  81051-3 0  9996,2 54175  53.2156 291.9892 0001157  86.9790 273.1335 15.08871219 18790,6917.785,95.436,540.45,538.85,0.0
54175.0,STARLINK-5256,PAYLOAD,2023-02-27 14:06:27,15.08880412,0.0001319,53.2158,289.6107,82.925,277.1892,0.00116,0.00018242,0.0,0 STARLINK-5256,1 54175U 22141U   23058.58782192  .00018242  00000-0  11600-2 0  9999,2 54175  53.2158 289.6107 0001319  82.9250 277.1892 15.08880412 18878,6917.757,95.435,540.534,538.709,0.0
54175.0,STARLINK-5256,PAYLOAD,2023-02-27 22:03:23,15.08848378,0.0001146,53.2169,288.1248,66.6385,293.4728,0.00030737,4.608e-05,0.0,0 STARLINK-5256,1 54175U 22141U   23058.91902519  .00004608  00000-0  30737-3 0  9997,2 54175  53.2169 288.1248 0001146  66.6385 293.4728 15.08848378 18926,6917.855,95.437,540.513,538.927,0.0
54175.0,STARLINK-5256,PAYLOAD,2023-02-28 01:14:09,15.08856226,0.0001225,53.2168,287.5282,65.8769,294.2351,0.00071002,0.00011035,0.0,0 STARLINK-5256,1 54175U 22141U   23059.05150401  .00011035  00000-0  71002-3 0  9990,2 54175  53.2168 287.5282 0001225  65.8769 294.2351 15.08856226 18945,6917.831,95.437,540.543,538.848,0.0
